Inverse Dynamics Generalized Forces
version=1
nRows=21
nColumns=24
inDegrees=no
endheader
time	pelvis_tilt_moment	pelvis_list_moment	pelvis_rotation_moment	pelvis_tx_force	pelvis_ty_force	pelvis_tz_force	hip_flexion_r_moment	hip_adduction_r_moment	hip_rotation_r_moment	hip_flexion_l_moment	hip_adduction_l_moment	hip_rotation_l_moment	lumbar_extension_moment	lumbar_bending_moment	lumbar_rotation_moment	knee_angle_r_moment	knee_angle_l_moment	ankle_angle_r_moment	ankle_angle_l_moment	subtalar_angle_r_moment	subtalar_angle_l_moment	mtp_angle_r_moment	mtp_angle_l_moment
      5.64959700	    210.85427580	     92.79316409	    201.33865926	   1007.33844037	   1962.85829610	     37.68893925	    152.71091835	     -6.04870896	      9.54439671	    156.83828710	    -91.40695832	     29.36299769	      4.09119678	    -67.59821722	    127.89518308	     25.47436980	     69.75515144	      3.27920749	     16.40719236	     -0.93890759	     -1.97095140	      0.16397287	      0.72525722
      5.66626300	    178.56994371	    116.19279408	    150.26729399	    956.66786366	   1838.38766898	    -10.44022553	    124.62769639	    -11.20306340	      6.02838941	    170.75993346	    -93.04922701	     42.51646233	    -34.04080323	    -38.87652648	     86.14635992	      2.31801645	     14.21305308	      5.22067446	     18.96614432	     -1.52509908	     -1.74863376	      0.39934741	      0.97790797
      5.68292900	   -129.24973789	    -58.80749942	    -24.25299697	    477.18425564	   1166.83579195	   -253.91627616	     98.66753528	    104.97567526	    -14.89421396	      9.54753712	     12.20423819	    -17.91230684	   -144.93259716	   -102.82355588	    -23.52655029	    -18.63422775	    -57.87230155	      4.67628213	     12.11968311	      1.73552460	      2.50291820	      0.58282356	      0.83059700
      5.69959500	   -456.78590783	   -329.88982411	   -199.83786458	    -91.92618742	    366.69205846	   -346.98093702	    103.71643549	    181.80105612	    -38.32872265	   -264.33809185	    158.95778301	   -122.23667054	   -216.71689090	   -133.30491816	   -129.47396436	    -24.17979025	   -137.78552751	      4.18305376	      0.87396636	      4.76939451	      8.89243822	      0.63136729	      0.52472145
      5.71626100	   -400.50381015	   -425.97703379	   -204.71094320	   -272.16503519	   -163.49431635	   -207.42731718	    167.68818252	     70.87059396	    -29.49873230	   -439.89322868	    184.57614867	   -126.24419118	   -118.50666857	    -96.45376907	   -188.68899155	      5.51393487	   -195.87535157	      6.68053599	     -5.45040879	      3.24701381	      8.98204908	      0.64999516	      0.29926013
      5.73292700	    -14.88741352	   -270.51402715	   -106.46362751	   -157.82149170	   -301.23113360	   -146.07148074	    233.36709181	    -70.14101428	     -0.84397148	   -407.47682649	     41.98024713	    -37.75521065	    108.33236610	    -77.81292910	   -200.63432013	     44.63605288	   -204.82206070	      9.27249631	     -5.47305429	      1.30524471	      2.89807758	      0.65628467	      0.18312212
      5.74959300	    292.98246394	    -59.85790474	    -51.58658040	    -87.51782581	   -254.71322615	   -242.67744699	    251.83403902	    -99.93803749	     -2.23665492	   -307.13229557	   -108.83714583	     19.96095131	    285.19320937	    -89.32912345	   -164.08305565	     72.91709319	   -184.43146373	      9.92362418	     -3.94445121	      1.46880937	     -2.15409150	      0.56464200	      0.14514201
      5.76625900	    266.44154292	     84.21168868	    -39.04630793	   -241.11844697	   -181.52066620	   -252.33494980	    217.90380080	    -70.42657709	    -17.46715134	   -291.67353906	   -144.80346854	     22.01739993	    307.67383603	    -63.64539957	    -77.26395891	     81.23834816	   -180.50576990	      9.10137805	     -2.85243232	      1.65679570	     -2.97601390	      0.42548458	      0.19514236
      5.78292500	     60.43270239	    151.07856485	    -21.48751656	   -478.09771867	     25.79064875	    -53.81878925	    176.66711356	    -42.34322664	    -15.75520801	   -320.09680688	    -75.09824652	      7.18969715	    227.36913002	     12.72204284	     22.85669223	     78.68416292	   -181.91595486	      8.42867986	     -0.80438520	      0.85468283	     -1.15659547	      0.34723587	      0.32378697
      5.79959100	   -128.99381461	    153.41159814	    -12.96166468	   -566.28024640	    544.78853846	    198.74133025	    139.52911293	    -20.48292459	      0.67277613	   -305.76663017	     23.01057724	     -3.72143532	    136.31166144	    101.00085965	     68.48660714	     73.45438136	   -161.77897567	      8.24473682	      2.53347386	     -0.74210783	      0.88510344	      0.31553452	      0.44477004
      5.81625700	   -203.76756845	    160.82594942	    -62.66757764	   -345.85716615	   1350.68390965	    291.74853666	    101.37918088	      0.64709654	     21.81515442	   -187.18240422	     61.22712249	     -7.70884570	     67.65712423	    185.44043327	     27.27880100	     69.01654641	   -101.58017622	      7.99830309	      5.48105487	     -2.72973465	      1.56389527	      0.27222300	      0.40791092
      5.83292300	   -153.30289276	    196.43582843	   -173.63165817	     29.09691707	   2040.91232100	    198.37164542	     69.13178620	     10.72782231	     36.97636628	     -4.04753047	     18.13318583	     -2.44044455	     30.10368699	    244.99925412	    -59.70237411	     71.49855226	    -21.17842506	      7.78172490	      5.06262735	     -4.14923270	      1.11035727	      0.21902149	      0.16244165
      5.84958900	     26.09211787	    190.60604158	   -256.49872842	    348.52629823	   2125.18607680	     58.96068519	     70.45730841	    -13.65191436	     39.22064691	    153.76296290	    -57.91021987	     10.11776660	     28.48841235	    224.77710542	   -115.32802675	     80.26540687	     42.99413238	      9.18380844	      3.22473124	     -4.08821731	     -0.24582760	      0.27450474	     -0.04086768
      5.86625500	    216.22117872	     90.58823294	   -227.69867406	    552.95294657	   1560.64242123	     17.47622448	     86.43366997	    -56.26106989	     34.42125684	    227.29816261	    -92.83870266	     17.16893630	     23.86020363	    115.30675191	    -94.00486578	     84.26049521	     68.38792645	     12.22692937	      4.19251941	     -3.42798450	     -1.73446768	      0.46544748	      0.04057738
      5.88292100	    233.68087102	    -71.59363241	    -64.34914574	    648.34523891	    790.86708359	    116.34506736	     77.98973604	    -71.74715198	     25.33869344	    209.37659396	    -19.70090526	      6.24826192	    -32.58679930	    -15.72482544	    -20.80841712	     74.13556470	     50.90724139	     14.23612442	      6.11250690	     -3.03355520	     -0.36438523	      0.65504883	      0.27157293
      5.89958700	     36.15172751	   -156.67978775	    109.70989885	    585.23902654	    310.12589633	    170.02945589	     22.20993024	    -37.00617090	      1.58782702	    148.91049028	     98.46140943	    -12.09631603	   -129.53270822	    -92.38416862	     37.80117433	     46.41685348	      9.65765851	     12.20174246	      5.14384909	     -2.00452075	      3.27670840	      0.68184081	      0.35897035
      5.91625300	   -244.01286516	    -58.60387883	    111.43679529	    403.17549722	    291.63050424	    -11.52374795	    -73.09095539	     32.42842466	    -39.71066576	     98.04587995	    117.39857691	    -18.45287422	   -222.07374764	    -84.90897625	     44.92403955	     -3.31087153	    -22.55441085	      6.43274269	      3.36906224	      0.37334018	      5.23519833	      0.55819017	      0.35513437
      5.93291900	   -465.98969243	    162.67046012	    -23.96925838	    136.88069119	    547.72006849	   -277.43070182	   -203.81137647	    110.69194388	    -83.30713518	     77.96618100	     39.90444540	    -11.56641846	   -263.45277404	    -10.51647296	     25.17063728	    -76.93372530	    -35.07418779	     -0.16156239	      3.02008937	      3.05170450	      5.61016397	      0.40891297	      0.40062848
      5.94958500	   -531.45050850	    359.38975728	    -89.46685477	   -255.79378828	    736.59561770	   -300.93597582	   -365.04042142	    161.99364311	   -106.96089451	    102.62033995	    -17.04588088	     -9.87529163	   -198.07910352	     89.95820124	     32.51639996	   -169.54728783	    -32.30527400	     -5.07625356	      3.54588430	      4.48336994	      6.52651079	      0.32493771	      0.44848998
      5.96625100	   -433.75874819	    402.60149771	      3.77013956	   -771.52329249	    631.85671341	     18.54459404	   -526.69174383	    115.56588880	    -86.89341373	    160.32079969	    -27.06684821	    -23.63418977	    -12.89257273	    171.78518215	     92.70539872	   -262.03819238	     -8.90947144	     -8.64976353	      4.79923452	      3.89451391	      7.24880486	      0.23200181	      0.44500917
      5.98291700	   -267.33178747	    238.41591030	    160.57233389	  -1190.64815725	    299.35252992	    473.36534394	   -611.37651334	    -79.11152222	    -32.70896021	    208.04780764	    -41.32108621	    -32.91657146	    201.28171712	    198.15456105	    169.83746987	   -325.68906656	     35.57908367	    -11.58770206	      6.91326882	      0.98984221	      6.06490097	      0.03779573	      0.43093650
