Model Marker Errors from IK
version=1
nRows=531
nColumns=4
inDegrees=no
endheader
time	total_squared_error	marker_error_RMS	marker_error_max
      0.00000000	      0.00429184	      0.01310242	      0.02677517
      0.01666700	      0.00341825	      0.01169316	      0.02396894
      0.03333300	      0.00246835	      0.00993649	      0.02251357
      0.05000000	      0.00159459	      0.00798645	      0.01970855
      0.06666700	      0.00099488	      0.00630834	      0.01728201
      0.08333300	      0.00095849	      0.00619190	      0.01465768
      0.10000000	      0.00114487	      0.00676719	      0.01955981
      0.11666700	      0.00186245	      0.00863123	      0.02461520
      0.13333300	      0.00274969	      0.01048750	      0.03165087
      0.15000000	      0.00405223	      0.01273142	      0.03526549
      0.16666700	      0.00545523	      0.01477190	      0.03801445
      0.18333300	      0.00760733	      0.01744401	      0.05029125
      0.20000000	      0.01016054	      0.02015990	      0.06309565
      0.21666700	      0.01274416	      0.02257800	      0.07447435
      0.23333300	      0.01643504	      0.02563984	      0.08668812
      0.25000000	      0.01930240	      0.02778662	      0.09276544
      0.26666700	      0.02068684	      0.02876584	      0.09453480
      0.28333300	      0.02256225	      0.03004147	      0.09380603
      0.30000000	      0.02419867	      0.03111184	      0.08898906
      0.31666700	      0.02181996	      0.02954316	      0.07637831
      0.33333300	      0.01823900	      0.02701037	      0.06016056
      0.35000000	      0.01516913	      0.02463260	      0.05643437
      0.36666700	      0.01393394	      0.02360842	      0.05314490
      0.38333300	      0.01316153	      0.02294474	      0.05093813
      0.40000000	      0.01189600	      0.02181376	      0.05200867
      0.41666700	      0.01105745	      0.02103088	      0.05018005
      0.43333300	      0.01070315	      0.02069121	      0.05007697
      0.45000000	      0.01070959	      0.02069743	      0.05080532
      0.46666700	      0.01057499	      0.02056695	      0.05304213
      0.48333300	      0.01057531	      0.02056727	      0.05589902
      0.50000000	      0.01054703	      0.02053975	      0.05939036
      0.51666700	      0.00985834	      0.01985783	      0.06445290
      0.53333300	      0.00994081	      0.01994072	      0.06919856
      0.55000000	      0.01111042	      0.02108120	      0.07296256
      0.56666700	      0.01233025	      0.02220833	      0.07345240
      0.58333300	      0.01312774	      0.02291527	      0.07349958
      0.60000000	      0.01288058	      0.02269853	      0.06990868
      0.61666700	      0.01256394	      0.02241780	      0.06527545
      0.63333300	      0.01181303	      0.02173755	      0.06061639
      0.65000000	      0.01142506	      0.02137761	      0.05731627
      0.66666700	      0.01260099	      0.02245083	      0.05812099
      0.68333300	      0.01461379	      0.02417751	      0.06193131
      0.70000000	      0.01666865	      0.02582143	      0.06585138
      0.71666700	      0.01641100	      0.02562108	      0.06563890
      0.73333300	      0.01530749	      0.02474469	      0.06164545
      0.75000000	      0.01276675	      0.02259801	      0.05848044
      0.76666700	      0.01114543	      0.02111438	      0.05503902
      0.78333300	      0.01108247	      0.02105467	      0.05584553
      0.80000000	      0.01179954	      0.02172514	      0.05995130
      0.81666700	      0.01183696	      0.02175956	      0.05987025
      0.83333300	      0.01255579	      0.02241052	      0.05972919
      0.85000000	      0.01394678	      0.02361929	      0.05900007
      0.86666700	      0.01457185	      0.02414278	      0.05697974
      0.88333300	      0.01438087	      0.02398405	      0.05593235
      0.90000000	      0.01342687	      0.02317487	      0.05541843
      0.91666700	      0.01372081	      0.02342717	      0.06053936
      0.93333300	      0.01491947	      0.02442905	      0.07031353
      0.95000000	      0.01567617	      0.02504090	      0.07504537
      0.96666700	      0.01529077	      0.02473117	      0.07090872
      0.98333300	      0.01471176	      0.02425841	      0.06409712
      1.00000000	      0.01349515	      0.02323373	      0.06051142
      1.01666700	      0.01194914	      0.02186242	      0.05916890
      1.03333300	      0.00999330	      0.01999330	      0.06233714
      1.05000000	      0.00913485	      0.01911529	      0.06790688
      1.06666700	      0.01155597	      0.02149974	      0.07531687
      1.08333300	      0.01486447	      0.02438398	      0.08712027
      1.10000000	      0.01862538	      0.02729497	      0.09834974
      1.11666700	      0.02247248	      0.02998165	      0.10902480
      1.13333300	      0.02627476	      0.03241898	      0.12014708
      1.15000000	      0.02858931	      0.03381675	      0.12783316
      1.16666700	      0.02972579	      0.03448234	      0.13040064
      1.18333300	      0.03002638	      0.03465624	      0.12984071
      1.20000000	      0.02904842	      0.03408720	      0.12698817
      1.21666700	      0.02654466	      0.03258507	      0.11982561
      1.23333300	      0.02387323	      0.03090193	      0.10884013
      1.25000000	      0.02183529	      0.02955354	      0.10450582
      1.26666700	      0.02098472	      0.02897221	      0.10710870
      1.28333300	      0.02245519	      0.02997011	      0.11490665
      1.30000000	      0.02480973	      0.03150221	      0.12441993
      1.31666700	      0.02753297	      0.03318612	      0.13163281
      1.33333300	      0.03225279	      0.03591812	      0.13766720
      1.35000000	      0.03624113	      0.03807420	      0.14102043
      1.36666700	      0.03714212	      0.03854458	      0.13950778
      1.38333300	      0.03461659	      0.03721107	      0.13471842
      1.40000000	      0.03173816	      0.03563041	      0.13030517
      1.41666700	      0.03083814	      0.03512159	      0.12965613
      1.43333300	      0.03134197	      0.03540733	      0.13114293
      1.45000000	      0.03161213	      0.03555960	      0.13152019
      1.46666700	      0.02937562	      0.03427863	      0.12330440
      1.48333300	      0.02689466	      0.03279918	      0.11227732
      1.50000000	      0.02398370	      0.03097334	      0.10443113
      1.51666700	      0.02171179	      0.02946985	      0.10321620
      1.53333300	      0.01912113	      0.02765584	      0.10519055
      1.55000000	      0.01807271	      0.02688696	      0.10842681
      1.56666700	      0.02012624	      0.02837340	      0.11219934
      1.58333300	      0.02231330	      0.02987527	      0.11664278
      1.60000000	      0.02558679	      0.03199174	      0.12233508
      1.61666700	      0.02997846	      0.03462858	      0.13131431
      1.63333300	      0.03396383	      0.03685855	      0.14008725
      1.65000000	      0.03558106	      0.03772588	      0.14454943
      1.66666700	      0.03420818	      0.03699091	      0.14065365
      1.68333300	      0.03270998	      0.03617180	      0.13597708
      1.70000000	      0.02999314	      0.03463706	      0.12815028
      1.71666700	      0.02655803	      0.03259327	      0.11705791
      1.73333300	      0.02291452	      0.03027509	      0.10243654
      1.75000000	      0.01816192	      0.02695324	      0.09431538
      1.76666700	      0.01782071	      0.02669884	      0.09766563
      1.78333300	      0.02193730	      0.02962249	      0.10787171
      1.80000000	      0.02590771	      0.03219174	      0.11543318
      1.81666700	      0.02567340	      0.03204584	      0.11459649
      1.83333300	      0.02443677	      0.03126453	      0.10802827
      1.85000000	      0.02338099	      0.03058169	      0.10157880
      1.86666700	      0.02363760	      0.03074905	      0.09728404
      1.88333300	      0.02335040	      0.03056168	      0.09354193
      1.90000000	      0.02121505	      0.02913077	      0.08838328
      1.91666700	      0.01985497	      0.02818153	      0.08195506
      1.93333300	      0.01951582	      0.02793980	      0.07376361
      1.95000000	      0.01837563	      0.02711135	      0.06645664
      1.96666700	      0.01625149	      0.02549627	      0.06287308
      1.98333300	      0.01344455	      0.02319012	      0.05902674
      2.00000000	      0.01027729	      0.02027540	      0.05517571
      2.01666700	      0.01106374	      0.02103687	      0.06141685
      2.03333300	      0.01202288	      0.02192978	      0.06983558
      2.05000000	      0.01435935	      0.02396610	      0.07739772
      2.06666700	      0.01596306	      0.02526900	      0.07868613
      2.08333300	      0.01564830	      0.02501863	      0.07451831
      2.10000000	      0.01487103	      0.02438937	      0.07223793
      2.11666700	      0.01514229	      0.02461080	      0.07111157
      2.13333300	      0.01534573	      0.02477557	      0.07178871
      2.15000000	      0.01411455	      0.02376093	      0.06823484
      2.16666700	      0.01280356	      0.02263056	      0.06203002
      2.18333300	      0.01254377	      0.02239980	      0.05482184
      2.20000000	      0.01120739	      0.02117300	      0.05023790
      2.21666700	      0.00949925	      0.01949281	      0.04844702
      2.23333300	      0.00915650	      0.01913792	      0.04955272
      2.25000000	      0.00903655	      0.01901216	      0.05156342
      2.26666700	      0.00972440	      0.01972247	      0.05447782
      2.28333300	      0.01314917	      0.02293397	      0.05691452
      2.30000000	      0.01707925	      0.02613752	      0.06221118
      2.31666700	      0.01909224	      0.02763494	      0.07382279
      2.33333300	      0.01806719	      0.02688285	      0.07977757
      2.35000000	      0.01527555	      0.02471886	      0.07253224
      2.36666700	      0.01461679	      0.02417998	      0.06821121
      2.38333300	      0.01515112	      0.02461798	      0.06332991
      2.40000000	      0.01525482	      0.02470208	      0.05711725
      2.41666700	      0.01400830	      0.02367134	      0.05572112
      2.43333300	      0.01339503	      0.02314738	      0.05696568
      2.45000000	      0.01149068	      0.02143892	      0.04872650
      2.46666700	      0.01116802	      0.02113577	      0.04888480
      2.48333300	      0.00925728	      0.01924295	      0.04317096
      2.50000000	      0.00973691	      0.01973516	      0.04182751
      2.51666700	      0.01018441	      0.02018357	      0.04223428
      2.53333300	      0.00993718	      0.01993708	      0.04153403
      2.55000000	      0.01000506	      0.02000506	      0.04852376
      2.56666700	      0.01142338	      0.02137604	      0.05241414
      2.58333300	      0.01187377	      0.02179336	      0.05211754
      2.60000000	      0.01157644	      0.02151877	      0.04564824
      2.61666700	      0.01104662	      0.02102058	      0.04244644
      2.63333300	      0.01113618	      0.02110562	      0.04353859
      2.65000000	      0.01027244	      0.02027061	      0.04347699
      2.66666700	      0.00883207	      0.01879581	      0.04166534
      2.68333300	      0.00709907	      0.01685120	      0.04766811
      2.70000000	      0.00569792	      0.01509692	      0.04295179
      2.71666700	      0.00699062	      0.01672199	      0.03737594
      2.73333300	      0.01119561	      0.02116187	      0.04829839
      2.75000000	      0.01557435	      0.02495944	      0.06153260
      2.76666700	      0.01752446	      0.02647600	      0.07269812
      2.78333300	      0.01608676	      0.02536672	      0.07898144
      2.80000000	      0.01333165	      0.02309255	      0.07396992
      2.81666700	      0.01311663	      0.02290557	      0.06965285
      2.83333300	      0.01423815	      0.02386474	      0.06626762
      2.85000000	      0.01460769	      0.02417246	      0.06051426
      2.86666700	      0.01314282	      0.02292843	      0.05309861
      2.88333300	      0.01210653	      0.02200594	      0.05271548
      2.90000000	      0.01041602	      0.02041178	      0.04499338
      2.91666700	      0.01009729	      0.02009706	      0.04549203
      2.93333300	      0.00877433	      0.01873428	      0.04185870
      2.95000000	      0.00936396	      0.01935351	      0.03964760
      2.96666700	      0.00969073	      0.01968830	      0.04227881
      2.98333300	      0.00968750	      0.01968502	      0.04251500
      3.00000000	      0.01029601	      0.02029385	      0.05019546
      3.01666700	      0.01208029	      0.02198208	      0.05532217
      3.03333300	      0.01234939	      0.02222556	      0.05359487
      3.05000000	      0.01153655	      0.02148166	      0.04715868
      3.06666700	      0.01102563	      0.02100060	      0.04132378
      3.08333300	      0.01132636	      0.02128508	      0.04378317
      3.10000000	      0.01018822	      0.02018734	      0.04260350
      3.11666700	      0.00832214	      0.01824515	      0.03942031
      3.13333300	      0.00681895	      0.01651539	      0.04865296
      3.15000000	      0.00514228	      0.01434194	      0.04218230
      3.16666700	      0.00625235	      0.01581436	      0.03205627
      3.18333300	      0.01046378	      0.02045852	      0.05038088
      3.20000000	      0.01466756	      0.02422194	      0.06259816
      3.21666700	      0.01701829	      0.02609083	      0.07485337
      3.23333300	      0.01615499	      0.02542046	      0.08443720
      3.25000000	      0.01262649	      0.02247353	      0.07806220
      3.26666700	      0.01226522	      0.02214969	      0.07440271
      3.28333300	      0.01273395	      0.02256896	      0.07332628
      3.30000000	      0.01253016	      0.02238764	      0.06781059
      3.31666700	      0.01109379	      0.02106542	      0.05742381
      3.33333300	      0.01212103	      0.02201911	      0.05261142
      3.35000000	      0.01179369	      0.02171975	      0.04719657
      3.36666700	      0.01187494	      0.02179444	      0.04663769
      3.38333300	      0.00984555	      0.01984495	      0.04393023
      3.40000000	      0.00958815	      0.01958382	      0.03985449
      3.41666700	      0.01028644	      0.02028442	      0.04572509
      3.43333300	      0.01035354	      0.02035047	      0.04222269
      3.45000000	      0.01126645	      0.02122870	      0.04901068
      3.46666700	      0.01252767	      0.02238541	      0.05427585
      3.48333300	      0.01295432	      0.02276341	      0.05540046
      3.50000000	      0.01170197	      0.02163513	      0.04949041
      3.51666700	      0.01032555	      0.02032294	      0.04359442
      3.53333300	      0.00948509	      0.01947828	      0.03839204
      3.55000000	      0.00930213	      0.01928951	      0.03590078
      3.56666700	      0.00875512	      0.01871376	      0.03876485
      3.58333300	      0.00835670	      0.01828300	      0.04762442
      3.60000000	      0.00570183	      0.01510210	      0.04078455
      3.61666700	      0.00717640	      0.01694273	      0.04328226
      3.63333300	      0.01004906	      0.02004900	      0.04541986
      3.65000000	      0.01270800	      0.02254595	      0.05818401
      3.66666700	      0.01414267	      0.02378459	      0.06642165
      3.68333300	      0.01344262	      0.02318846	      0.07122178
      3.70000000	      0.01107925	      0.02105161	      0.06699245
      3.71666700	      0.01133217	      0.02129053	      0.06578260
      3.73333300	      0.01232511	      0.02220370	      0.06412596
      3.75000000	      0.01304670	      0.02284443	      0.05885558
      3.76666700	      0.01327831	      0.02304631	      0.05890620
      3.78333300	      0.01422969	      0.02385765	      0.06532947
      3.80000000	      0.01267673	      0.02251819	      0.05984171
      3.81666700	      0.00894449	      0.01891506	      0.03903864
      3.83333300	      0.00715595	      0.01691857	      0.03472952
      3.85000000	      0.00785815	      0.01772924	      0.04021936
      3.86666700	      0.00888347	      0.01885043	      0.04028438
      3.88333300	      0.00921308	      0.01919696	      0.03967236
      3.90000000	      0.00970353	      0.01970130	      0.04421088
      3.91666700	      0.01116827	      0.02113601	      0.05209326
      3.93333300	      0.01119529	      0.02116156	      0.05428168
      3.95000000	      0.01071298	      0.02070071	      0.05079720
      3.96666700	      0.00998738	      0.01998738	      0.04406551
      3.98333300	      0.01033000	      0.02032732	      0.03863030
      4.00000000	      0.01028266	      0.02028069	      0.03962474
      4.01666700	      0.00992311	      0.01992296	      0.04045173
      4.03333300	      0.00949965	      0.01949323	      0.04969538
      4.05000000	      0.00671207	      0.01638545	      0.04402839
      4.06666700	      0.00716359	      0.01692760	      0.03680455
      4.08333300	      0.01083274	      0.02081609	      0.04775622
      4.10000000	      0.01378962	      0.02348584	      0.06028680
      4.11666700	      0.01400395	      0.02366766	      0.06686632
      4.13333300	      0.01250297	      0.02236334	      0.06958299
      4.15000000	      0.01052126	      0.02051464	      0.06569612
      4.16666700	      0.01107701	      0.02104948	      0.06520108
      4.18333300	      0.01227323	      0.02215692	      0.06564850
      4.20000000	      0.01233028	      0.02220836	      0.06151488
      4.21666700	      0.01204850	      0.02195313	      0.05299290
      4.23333300	      0.01325629	      0.02302719	      0.06028708
      4.25000000	      0.01278669	      0.02261565	      0.05855923
      4.26666700	      0.00983403	      0.01983333	      0.04275250
      4.28333300	      0.00746749	      0.01728293	      0.03127049
      4.30000000	      0.00702479	      0.01676281	      0.03037025
      4.31666700	      0.00862574	      0.01857497	      0.03938331
      4.33333300	      0.00928009	      0.01926665	      0.04110855
      4.35000000	      0.01071658	      0.02070418	      0.04705373
      4.36666700	      0.01227672	      0.02216007	      0.04951744
      4.38333300	      0.01247404	      0.02233745	      0.05423145
      4.40000000	      0.01187948	      0.02179861	      0.05094279
      4.41666700	      0.01210583	      0.02200530	      0.04642395
      4.43333300	      0.01220249	      0.02209297	      0.04771115
      4.45000000	      0.01241844	      0.02228761	      0.05091346
      4.46666700	      0.01208630	      0.02198754	      0.04843508
      4.48333300	      0.01169759	      0.02163108	      0.05081131
      4.50000000	      0.00840351	      0.01833414	      0.04203277
      4.51666700	      0.00905423	      0.01903074	      0.04561243
      4.53333300	      0.01277828	      0.02260821	      0.05495364
      4.55000000	      0.01551070	      0.02490839	      0.06072879
      4.56666700	      0.01641039	      0.02562061	      0.06526372
      4.58333300	      0.01440730	      0.02400608	      0.06944342
      4.60000000	      0.01299353	      0.02279784	      0.06838228
      4.61666700	      0.01334263	      0.02310206	      0.06759181
      4.63333300	      0.01409269	      0.02374252	      0.06800315
      4.65000000	      0.01379312	      0.02348882	      0.06323272
      4.66666700	      0.01344893	      0.02319390	      0.05454008
      4.68333300	      0.01597731	      0.02528028	      0.06267963
      4.70000000	      0.01622828	      0.02547805	      0.06324704
      4.71666700	      0.01386907	      0.02355340	      0.05715102
      4.73333300	      0.01037933	      0.02037580	      0.04293210
      4.75000000	      0.00832945	      0.01825317	      0.04263085
      4.76666700	      0.00955546	      0.01955040	      0.04431378
      4.78333300	      0.01096830	      0.02094593	      0.04823938
      4.80000000	      0.01183297	      0.02175590	      0.04799212
      4.81666700	      0.01263996	      0.02248552	      0.04998628
      4.83333300	      0.01274817	      0.02258156	      0.05576230
      4.85000000	      0.01166609	      0.02160194	      0.05328313
      4.86666700	      0.01189415	      0.02181206	      0.05140674
      4.88333300	      0.01218731	      0.02207923	      0.04881384
      4.90000000	      0.01220154	      0.02209211	      0.04523337
      4.91666700	      0.01215001	      0.02204542	      0.04123389
      4.93333300	      0.01194733	      0.02186077	      0.04989103
      4.95000000	      0.00807311	      0.01797009	      0.04026963
      4.96666700	      0.00788629	      0.01776096	      0.03495332
      4.98333300	      0.01109533	      0.02106687	      0.04497900
      5.00000000	      0.01353220	      0.02326560	      0.05588609
      5.01666700	      0.01363049	      0.02334994	      0.06135156
      5.03333300	      0.01291495	      0.02272879	      0.06550099
      5.05000000	      0.01268976	      0.02252977	      0.06678143
      5.06666700	      0.01373302	      0.02343760	      0.06964852
      5.08333300	      0.01402480	      0.02368527	      0.07162812
      5.10000000	      0.01319079	      0.02297023	      0.06656439
      5.11666700	      0.01271665	      0.02255363	      0.05634483
      5.13333300	      0.01534423	      0.02477436	      0.06006440
      5.15000000	      0.01575529	      0.02510401	      0.06199462
      5.16666700	      0.01396544	      0.02363510	      0.06025180
      5.18333300	      0.01027954	      0.02027762	      0.04811533
      5.20000000	      0.00775338	      0.01761065	      0.03308005
      5.21666700	      0.00846512	      0.01840122	      0.03622037
      5.23333300	      0.00975525	      0.01975374	      0.03623945
      5.25000000	      0.01086850	      0.02085042	      0.04367875
      5.26666700	      0.01209426	      0.02199478	      0.05106268
      5.28333300	      0.01277677	      0.02260688	      0.05896786
      5.30000000	      0.01152640	      0.02147222	      0.05819430
      5.31666700	      0.01242865	      0.02229677	      0.05644920
      5.33333300	      0.01339521	      0.02314754	      0.05622907
      5.35000000	      0.01339966	      0.02315138	      0.05202548
      5.36666700	      0.01324289	      0.02301556	      0.04307545
      5.38333300	      0.01352673	      0.02326089	      0.04547263
      5.40000000	      0.01002190	      0.02002189	      0.03919757
      5.41666700	      0.00882468	      0.01878795	      0.03367285
      5.43333300	      0.01076081	      0.02074686	      0.04235149
      5.45000000	      0.01231745	      0.02219680	      0.05177346
      5.46666700	      0.01221730	      0.02210638	      0.05471616
      5.48333300	      0.01188893	      0.02180727	      0.05853949
      5.50000000	      0.01236434	      0.02223901	      0.06051610
      5.51666700	      0.01317957	      0.02296046	      0.06456424
      5.53333300	      0.01320181	      0.02297982	      0.06802924
      5.55000000	      0.01247127	      0.02233497	      0.06429420
      5.56666700	      0.01226396	      0.02214855	      0.05614184
      5.58333300	      0.01350690	      0.02324383	      0.05072482
      5.60000000	      0.01445483	      0.02404565	      0.05560566
      5.61666700	      0.01339599	      0.02314821	      0.05531480
      5.63333300	      0.01169514	      0.02162882	      0.04815839
      5.65000000	      0.00890011	      0.01886808	      0.03663651
      5.66666700	      0.00967155	      0.01966881	      0.03945522
      5.68333300	      0.01070099	      0.02068912	      0.03581034
      5.70000000	      0.01141503	      0.02136823	      0.04503253
      5.71666700	      0.01240108	      0.02227202	      0.05187831
      5.73333300	      0.01251616	      0.02237513	      0.05858989
      5.75000000	      0.01176056	      0.02168923	      0.05968044
      5.76666700	      0.01285164	      0.02267301	      0.06214727
      5.78333300	      0.01380709	      0.02350072	      0.06337115
      5.80000000	      0.01407770	      0.02372989	      0.05822177
      5.81666700	      0.01349490	      0.02323351	      0.04903490
      5.83333300	      0.01361398	      0.02333579	      0.04463766
      5.85000000	      0.01086208	      0.02084426	      0.04192264
      5.86666700	      0.00821123	      0.01812317	      0.03605727
      5.88333300	      0.00878338	      0.01874394	      0.04066967
      5.90000000	      0.00977291	      0.01977161	      0.04205290
      5.91666700	      0.00993350	      0.01993339	      0.04900905
      5.93333300	      0.01044355	      0.02043874	      0.05498310
      5.95000000	      0.01232588	      0.02220440	      0.06093649
      5.96666700	      0.01270979	      0.02254754	      0.06431004
      5.98333300	      0.01266426	      0.02250712	      0.07085834
      6.00000000	      0.01085491	      0.02083738	      0.06665746
      6.01666700	      0.01080199	      0.02078652	      0.06448152
      6.03333300	      0.01094522	      0.02092388	      0.05919186
      6.05000000	      0.01142245	      0.02137517	      0.05431115
      6.06666700	      0.01050339	      0.02049721	      0.04544267
      6.08333300	      0.00958489	      0.01958049	      0.04051632
      6.10000000	      0.00782849	      0.01769575	      0.03689310
      6.11666700	      0.00861073	      0.01855880	      0.03712632
      6.13333300	      0.01068984	      0.02067834	      0.03678108
      6.15000000	      0.01279096	      0.02261943	      0.05190192
      6.16666700	      0.01398485	      0.02365151	      0.05684755
      6.18333300	      0.01315443	      0.02293855	      0.06162711
      6.20000000	      0.01179849	      0.02172418	      0.06074488
      6.21666700	      0.01298237	      0.02278804	      0.06315128
      6.23333300	      0.01365111	      0.02336759	      0.06238975
      6.25000000	      0.01306153	      0.02285741	      0.05539958
      6.26666700	      0.01302025	      0.02282126	      0.04953112
      6.28333300	      0.01324733	      0.02301941	      0.04568897
      6.30000000	      0.01215241	      0.02204760	      0.04300758
      6.31666700	      0.01012496	      0.02012457	      0.03874360
      6.33333300	      0.00904101	      0.01901685	      0.04235818
      6.35000000	      0.00745919	      0.01727332	      0.03460291
      6.36666700	      0.00775345	      0.01761074	      0.03966718
      6.38333300	      0.00968466	      0.01968214	      0.05278689
      6.40000000	      0.01193767	      0.02185193	      0.05765298
      6.41666700	      0.01282938	      0.02265337	      0.06191479
      6.43333300	      0.01214178	      0.02203795	      0.06719679
      6.45000000	      0.01044428	      0.02043945	      0.06403529
      6.46666700	      0.01092617	      0.02090567	      0.06436440
      6.48333300	      0.01060741	      0.02059845	      0.06451505
      6.50000000	      0.00956641	      0.01956160	      0.05842206
      6.51666700	      0.00904101	      0.01901685	      0.05027912
      6.53333300	      0.01170653	      0.02163935	      0.04796456
      6.55000000	      0.01315111	      0.02293565	      0.05120712
      6.56666700	      0.01105139	      0.02102511	      0.04764250
      6.58333300	      0.00771369	      0.01756552	      0.03259807
      6.60000000	      0.00646388	      0.01607965	      0.03059946
      6.61666700	      0.00803040	      0.01792250	      0.03721119
      6.63333300	      0.00926535	      0.01925133	      0.03819121
      6.65000000	      0.01085840	      0.02084073	      0.04308117
      6.66666700	      0.01228330	      0.02216601	      0.04666379
      6.68333300	      0.01284960	      0.02267121	      0.05200261
      6.70000000	      0.01199795	      0.02190703	      0.05339112
      6.71666700	      0.01282353	      0.02264821	      0.05437434
      6.73333300	      0.01418591	      0.02382093	      0.05562123
      6.75000000	      0.01518924	      0.02464893	      0.05205402
      6.76666700	      0.01471789	      0.02426346	      0.04722749
      6.78333300	      0.01337836	      0.02313297	      0.04421177
      6.80000000	      0.01059708	      0.02058843	      0.04105433
      6.81666700	      0.00867817	      0.01863134	      0.03783578
      6.83333300	      0.00813285	      0.01803647	      0.04201717
      6.85000000	      0.01039264	      0.02038886	      0.04394386
      6.86666700	      0.01086487	      0.02084693	      0.04941963
      6.88333300	      0.01259741	      0.02244764	      0.05475559
      6.90000000	      0.01521223	      0.02466757	      0.05922648
      6.91666700	      0.01493984	      0.02444573	      0.06239736
      6.93333300	      0.01305557	      0.02285220	      0.06361107
      6.95000000	      0.01171546	      0.02164760	      0.06449124
      6.96666700	      0.01183405	      0.02175689	      0.06503052
      6.98333300	      0.01227746	      0.02216074	      0.06731850
      7.00000000	      0.01259594	      0.02244633	      0.06632946
      7.01666700	      0.01241799	      0.02228720	      0.06220251
      7.03333300	      0.01366129	      0.02337631	      0.05828995
      7.05000000	      0.01458957	      0.02415746	      0.05372933
      7.06666700	      0.01505121	      0.02453667	      0.04909579
      7.08333300	      0.01477892	      0.02431372	      0.05466818
      7.10000000	      0.01285081	      0.02267228	      0.04799850
      7.11666700	      0.01161026	      0.02155018	      0.04569663
      7.13333300	      0.01128502	      0.02124619	      0.04955807
      7.15000000	      0.01331635	      0.02307930	      0.05816114
      7.16666700	      0.01565324	      0.02502258	      0.06530463
      7.18333300	      0.01706610	      0.02612746	      0.06910308
      7.20000000	      0.01745925	      0.02642669	      0.06900806
      7.21666700	      0.01703327	      0.02610232	      0.06273752
      7.23333300	      0.01626473	      0.02550665	      0.05309743
      7.25000000	      0.01494385	      0.02444901	      0.04604519
      7.26666700	      0.01502684	      0.02451681	      0.04474181
      7.28333300	      0.01599625	      0.02529526	      0.04810602
      7.30000000	      0.01607554	      0.02535787	      0.04972516
      7.31666700	      0.01468442	      0.02423586	      0.05053891
      7.33333300	      0.01373763	      0.02344153	      0.04897962
      7.35000000	      0.01293598	      0.02274729	      0.04904887
      7.36666700	      0.01125258	      0.02121563	      0.05445577
      7.38333300	      0.01023389	      0.02023254	      0.05954986
      7.40000000	      0.01113908	      0.02110837	      0.06590479
      7.41666700	      0.01290627	      0.02272115	      0.06970445
      7.43333300	      0.01550332	      0.02490246	      0.07110258
      7.45000000	      0.01795509	      0.02679932	      0.07188207
      7.46666700	      0.01748856	      0.02644887	      0.06890388
      7.48333300	      0.01637689	      0.02559445	      0.06523195
      7.50000000	      0.01553402	      0.02492711	      0.05977325
      7.51666700	      0.01460323	      0.02416876	      0.05617108
      7.53333300	      0.01448535	      0.02407102	      0.05996419
      7.55000000	      0.01404523	      0.02370252	      0.06093271
      7.56666700	      0.01399294	      0.02365835	      0.05775283
      7.58333300	      0.01464438	      0.02420280	      0.05499960
      7.60000000	      0.01386368	      0.02354883	      0.05154119
      7.61666700	      0.01300392	      0.02280694	      0.04641164
      7.63333300	      0.01349285	      0.02323174	      0.04650043
      7.65000000	      0.01311494	      0.02290410	      0.04761859
      7.66666700	      0.01118598	      0.02115276	      0.04552045
      7.68333300	      0.00927981	      0.01926636	      0.03680080
      7.70000000	      0.00971903	      0.01971703	      0.04201310
      7.71666700	      0.01199485	      0.02190420	      0.04872652
      7.73333300	      0.01432982	      0.02394144	      0.05671189
      7.75000000	      0.01614041	      0.02540898	      0.05977816
      7.76666700	      0.01583146	      0.02516462	      0.05347429
      7.78333300	      0.01490075	      0.02441373	      0.04825772
      7.80000000	      0.01395507	      0.02362632	      0.04769983
      7.81666700	      0.01402728	      0.02368737	      0.04563744
      7.83333300	      0.01408861	      0.02373909	      0.04402055
      7.85000000	      0.01450491	      0.02408727	      0.04524631
      7.86666700	      0.01416138	      0.02380032	      0.04609024
      7.88333300	      0.01388939	      0.02357065	      0.04376594
      7.90000000	      0.01385966	      0.02354541	      0.04445836
      7.91666700	      0.01203062	      0.02193683	      0.04566019
      7.93333300	      0.00981680	      0.01981595	      0.04665230
      7.95000000	      0.00866463	      0.01861680	      0.05020037
      7.96666700	      0.00908907	      0.01906732	      0.05498780
      7.98333300	      0.01221367	      0.02210310	      0.06322953
      8.00000000	      0.01522802	      0.02468037	      0.06951652
      8.01666700	      0.01605773	      0.02534382	      0.07118826
      8.03333300	      0.01589482	      0.02521494	      0.07144520
      8.05000000	      0.01611383	      0.02538805	      0.06958970
      8.06666700	      0.01563699	      0.02500959	      0.06491502
      8.08333300	      0.01427197	      0.02389307	      0.05737255
      8.10000000	      0.01359679	      0.02332105	      0.05106723
      8.11666700	      0.01394759	      0.02361999	      0.05200844
      8.13333300	      0.01467838	      0.02423087	      0.05194765
      8.15000000	      0.01434755	      0.02395626	      0.05126526
      8.16666700	      0.01393976	      0.02361335	      0.04821827
      8.18333300	      0.01495034	      0.02445431	      0.04485796
      8.20000000	      0.01651422	      0.02570153	      0.05072115
      8.21666700	      0.01597925	      0.02528181	      0.05167911
      8.23333300	      0.01351483	      0.02325066	      0.04712622
      8.25000000	      0.01071251	      0.02070025	      0.04770848
      8.26666700	      0.01084555	      0.02082839	      0.05222668
      8.28333300	      0.01202026	      0.02192739	      0.05971264
      8.30000000	      0.01417260	      0.02380974	      0.06516750
      8.31666700	      0.01559813	      0.02497850	      0.06634521
      8.33333300	      0.01715622	      0.02619635	      0.07127719
      8.35000000	      0.01773708	      0.02663613	      0.07009393
      8.36666700	      0.01748208	      0.02644396	      0.06573334
      8.38333300	      0.01689681	      0.02599754	      0.05763264
      8.40000000	      0.01588784	      0.02520939	      0.05279410
      8.41666700	      0.01530003	      0.02473866	      0.05480233
      8.43333300	      0.01490629	      0.02441827	      0.05565752
      8.45000000	      0.01475630	      0.02429510	      0.05714711
      8.46666700	      0.01474837	      0.02428857	      0.05111385
      8.48333300	      0.01386127	      0.02354678	      0.04522472
      8.50000000	      0.01132173	      0.02128072	      0.04382235
      8.51666700	      0.00899020	      0.01896333	      0.04874447
      8.53333300	      0.00886562	      0.01883149	      0.05682042
      8.55000000	      0.01065429	      0.02064393	      0.06423381
      8.56666700	      0.01242249	      0.02229124	      0.06811661
      8.58333300	      0.01473707	      0.02427926	      0.06984883
      8.60000000	      0.01706943	      0.02613000	      0.07136392
      8.61666700	      0.01615188	      0.02541801	      0.06679306
      8.63333300	      0.01477896	      0.02431375	      0.06153415
      8.65000000	      0.01359332	      0.02331808	      0.05550154
      8.66666700	      0.01281937	      0.02264453	      0.04900412
      8.68333300	      0.01244318	      0.02230980	      0.04757833
      8.70000000	      0.01254563	      0.02240146	      0.04939380
      8.71666700	      0.01263602	      0.02248201	      0.04828897
      8.73333300	      0.01299270	      0.02279711	      0.04936201
      8.75000000	      0.01256891	      0.02242223	      0.04727194
      8.76666700	      0.01170077	      0.02163402	      0.04504487
      8.78333300	      0.01289272	      0.02270922	      0.04259659
      8.80000000	      0.01520298	      0.02466007	      0.04966221
      8.81666700	      0.01493912	      0.02444514	      0.05066465
      8.83333300	      0.01316668	      0.02294923	      0.04801730
